59455,STARLINK-31617,2024,93.46,-1.0,+,43.0,Active,0,LEO,USA,USA,Unknown,Unknown,Unknown,1 59455U 24068A   24235.65355406  .00003626  00000+0  94014-4 0  9996,2 59455  43.0026 359.5538 0001527 299.1653  60.9050 15.40701471 22041,15.40701471,0.0001527,LEO
59456,STARLINK-31622,2024,93.46,-1.0,+,43.01,Active,0,LEO,USA,USA,Unknown,Unknown,Unknown,1 59456U 24068B   24235.70494572 -.00000342  00000+0 -93018-6 0  9990,2 59456  43.0058 359.0740 0001377 276.9902  83.0798 15.40695412 22042,15.40695412,0.0001377,LEO
59457,STARLINK-31319,2024,93.46,-1.0,+,43.01,Active,0,LEO,USA,USA,Unknown,Unknown,Unknown,1 59457U 24068C   24235.40991882  .00004766  00000+0  12129-3 0  9997,2 59457  43.0055   1.1646 0002963 280.7140  79.3383 15.40699123 21993,15.40699123,0.0002963,LEO
59458,STARLINK-31625,2024,93.46,-1.0,+,43.01,Active,0,LEO,USA,USA,Unknown,Unknown,Unknown,1 59458U 24068D   24235.69600068 -.00000005  00000+0  71443-5 0  9991,2 59458  43.0049 359.0066 0000602 252.5425 107.5365 15.40670647 22051,15.40670647,6.02e-05,LEO
59459,STARLINK-31631,2024,93.46,-1.0,+,43.01,Active,0,LEO,USA,USA,Unknown,Unknown,Unknown,1 59459U 24068E   24235.61561706 -.00003907  00000+0 -86375-4 0  9993,2 59459  43.0033   0.1270 0001663 247.5303 112.5377 15.40672724 22027,15.40672724,0.0001663,LEO
59460,STARLINK-31620,2024,93.46,-1.0,+,43.01,Active,0,LEO,USA,USA,Unknown,Unknown,Unknown,1 59460U 24068F   24235.33835948 -.00002687  00000+0 -57035-4 0  9991,2 59460  43.0061   1.4887 0001723 265.4362  94.6297 15.40721574 21982,15.40721574,0.0001723,LEO
59462,STARLINK-31511,2024,93.46,-1.0,+,43.01,Active,0,LEO,USA,USA,Unknown,Unknown,Unknown,1 59462U 24068H   24235.71165905  .00006033  00000+0  15149-3 0  9990,2 59462  43.0017 359.1235 0002046 299.5961  60.4692 15.40719707 22040,15.40719707,0.0002046,LEO
59463,STARLINK-31364,2024,93.46,-1.0,+,43.01,Active,0,LEO,USA,USA,Unknown,Unknown,Unknown,1 59463U 24068J   24235.41440018  .00000490  00000+0  19035-4 0  9999,2 59463  43.0055   1.1964 0003099 282.1558  77.8951 15.40685170 21994,15.4068517,0.0003099,LEO
59464,STARLINK-31597,2024,93.46,-1.0,+,43.01,Active,0,LEO,USA,USA,Unknown,Unknown,Unknown,1 59464U 24068K   24235.75629714 -.00013607  00000+0 -31839-3 0  9990,2 59464  43.0050 358.5954 0001642 259.3197 100.7475 15.40762108 21999,15.40762108,0.0001642,LEO
59465,STARLINK-31621,2024,93.46,-1.0,+,43.01,Active,0,LEO,USA,USA,Unknown,Unknown,Unknown,1 59465U 24068L   24235.69822618  .00000985  00000+0  30871-4 0  9991,2 59465  43.0071 359.0350 0003330 297.1931  62.8586 15.40695150 22030,15.4069515,0.000333,LEO
59466,STARLINK-31462,2024,93.46,-1.0,+,43.0,Active,0,LEO,USA,USA,Unknown,Unknown,Unknown,1 59466U 24068M   24235.68702063 -.00002502  00000+0 -52690-4 0  9994,2 59466  43.0041 358.9180 0000982 268.8896  91.1848 15.40686228 22045,15.40686228,9.82e-05,LEO
59467,STARLINK-31592,2024,93.46,-1.0,+,43.0,Active,0,LEO,USA,USA,Unknown,Unknown,Unknown,1 59467U 24068N   24235.70942506  .00000475  00000+0  18662-4 0  9992,2 59467  43.0058 359.1083 0003095 297.3699  62.6842 15.40695315 22049,15.40695315,0.0003095,LEO
59468,STARLINK-31267,2024,93.46,-1.0,+,43.01,Active,0,LEO,USA,USA,Unknown,Unknown,Unknown,1 59468U 24068P   24235.40095136  .00002977  00000+0  78492-4 0  9994,2 59468  43.0087   1.0999 0002353 292.1146  67.9460 15.40706872 21995,15.40706872,0.0002353,LEO
59469,STARLINK-31381,2024,93.46,-1.0,+,43.01,Active,0,LEO,USA,USA,Unknown,Unknown,Unknown,1 59469U 24068Q   24235.65806218 -.00001563  00000+0 -30180-4 0  9997,2 59469  43.0078 359.5856 0001716 291.1148  68.9525 15.40663653 22030,15.40663653,0.0001716,LEO
59471,STARLINK-31575,2024,93.46,-1.0,+,43.0,Active,0,LEO,USA,USA,Unknown,Unknown,Unknown,1 59471U 24068S   24235.40544296  .00001943  00000+0  53770-4 0  9998,2 59471  42.9995   1.1269 0001577 152.3926 207.7015 15.40692454 21996,15.40692454,0.0001577,LEO
59472,STARLINK-31375,2024,93.41,-1.0,+,43.01,Active,0,LEO,USA,USA,Unknown,Unknown,Unknown,1 59472U 24068T   24235.68341203  .00055784  00000+0  12931-2 0  9996,2 59472  43.0007 358.9040 0001144 343.0497  17.0322 15.41613021 22049,15.41613021,0.0001144,LEO
59473,STARLINK-31610,2024,93.46,-1.0,+,43.01,Active,0,LEO,USA,USA,Unknown,Unknown,Unknown,1 59473U 24068U   24235.75857191  .00005123  00000+0  12982-3 0  9992,2 59473  43.0038 358.6123 0001332 245.0708 115.0010 15.40702765 22055,15.40702765,0.0001332,LEO
59474,STARLINK-31581,2024,93.46,-1.0,+,43.01,Active,0,LEO,USA,USA,Unknown,Unknown,Unknown,1 59474U 24068V   24235.72064345 -.00001746  00000+0 -34537-4 0  9991,2 59474  43.0012 359.1936 0003773 315.9584  44.0971 15.40676934 22040,15.40676934,0.0003773,LEO
59475,STARLINK-31566,2024,93.46,-1.0,+,43.01,Active,0,LEO,USA,USA,Unknown,Unknown,Unknown,1 59475U 24068W   24235.68254029 -.00001428  00000+0 -26928-4 0  9999,2 59475  43.0073 358.8955 0001969 259.2914 100.7721 15.40691618 22046,15.40691618,0.0001969,LEO
59476,STARLINK-31515,2024,93.46,-1.0,+,43.0,Active,0,LEO,USA,USA,Unknown,Unknown,Unknown,1 59476U 24068X   24235.75409169  .00007380  00000+0  18372-3 0  9999,2 59476  43.0037 358.5757 0001682 256.4741 103.5928 15.40705806 22048,15.40705806,0.0001682,LEO
59477,STARLINK-31531,2024,93.46,-1.0,+,43.0,Active,0,LEO,USA,USA,Unknown,Unknown,Unknown,1 59477U 24068Y   24235.41649413  .00002740  00000+0  72816-4 0  9990,2 59477  43.0045   0.3357 0002216 268.2817  91.7786 15.40708057 22002,15.40708057,0.0002216,LEO
59479,DUMMY SAT 3,2024,1460.36,-1.0,+,0.37,Active,0,GSO,Russia,Russia/USSR,Unknown,Unknown,Unknown,1 59479U 24069A   24234.95416088  .00000002  00000+0  00000+0 0  9991,2 59479   0.3730  87.2832 0049899 113.9168 158.5909  0.98606104  1267,0.98606104,0.0049899,GSO
59481,WSF-M,2024,101.37,-1.0,+,98.72,Active,0,LEO,USA,USA,Unknown,Unknown,Unknown,1 59481U 24070A   24235.56140452  .00000263  00000+0  14289-3 0  9990,2 59481  98.7202 241.5034 0005938  79.1011 281.0834 14.20514028 18877,14.20514028,0.0005938,LEO
59484,STARLINK-31753,2024,93.46,-1.0,+,43.02,Active,0,LEO,USA,USA,Unknown,Unknown,Unknown,1 59484U 24071A   24235.54398386 -.00000820  00000+0 -12367-4 0  9990,2 59484  43.0026 318.9121 0001952 135.1009 225.0005 15.40686181 21500,15.40686181,0.0001952,LEO
59485,STARLINK-31653,2024,93.46,-1.0,+,43.01,Active,0,LEO,USA,USA,Unknown,Unknown,Unknown,1 59485U 24071B   24235.70711532 -.00007444  00000+0 -17129-3 0  9990,2 59485  42.9998 317.5458 0000687 194.4124 165.6713 15.40672134 21536,15.40672134,6.87e-05,LEO
59486,STARLINK-31733,2024,93.46,-1.0,+,43.0,Active,0,LEO,USA,USA,Unknown,Unknown,Unknown,1 59486U 24071C   24235.59310048  .00016604  00000+0  40304-3 0  9992,2 59486  43.0035 318.4157 0001390 263.8088  96.2610 15.40763806 21519,15.40763806,0.000139,LEO
59487,STARLINK-31657,2024,93.46,-1.0,+,43.01,Active,0,LEO,USA,USA,Unknown,Unknown,Unknown,1 59487U 24071D   24235.53725674 -.00004829  00000+0 -10851-3 0  9994,2 59487  42.9952 318.8482 0001026 240.5985 119.4769 15.40677488 21552,15.40677488,0.0001026,LEO
59488,STARLINK-31754,2024,93.46,-1.0,+,43.0,Active,0,LEO,USA,USA,Unknown,Unknown,Unknown,1 59488U 24071E   24235.30019012  .00001560  00000+0  44587-4 0  9993,2 59488  43.0017 319.6445 0001741 234.7417 125.3277 15.40709174 21529,15.40709174,0.0001741,LEO
59489,STARLINK-31638,2024,93.46,-1.0,+,43.01,Active,0,LEO,USA,USA,Unknown,Unknown,Unknown,1 59489U 24071F   24235.50366635 -.00001311  00000+0 -24142-4 0  9993,2 59489  43.0082 318.6039 0000674 283.5677  76.5105 15.40681221 21501,15.40681221,6.74e-05,LEO
