OBJECT_NAME,OBJECT_ID,EPOCH,MEAN_MOTION,ECCENTRICITY,INCLINATION,RA_OF_ASC_NODE,ARG_OF_PERICENTER,MEAN_ANOMALY,EPHEMERIS_TYPE,CLASSIFICATION_TYPE,NORAD_CAT_ID,ELEMENT_SET_NO,REV_AT_EPOCH,BSTAR,MEAN_MOTION_DOT,MEAN_MOTION_DDOT
STARLINK-31617,2024-068A,2024-08-22T15:41:07.070784,15.40701471,.0001527,43.0026,359.5538,299.1653,60.9050,0,U,59455,999,2204,.94014E-4,.3626E-4,0
STARLINK-31622,2024-068B,2024-08-22T16:55:07.310208,15.40695412,.0001377,43.0058,359.0740,276.9902,83.0798,0,U,59456,999,2204,-.93018E-6,-.342E-5,0
STARLINK-31319,2024-068C,2024-08-22T09:50:16.986048,15.40699123,.0002963,43.0055,1.1646,280.7140,79.3383,0,U,59457,999,2199,.12129E-3,.4766E-4,0
STARLINK-31625,2024-068D,2024-08-22T16:42:14.458752,15.40670647,.0000602,43.0049,359.0066,252.5425,107.5365,0,U,59458,999,2205,.71443E-5,-.5E-7,0
STARLINK-31631,2024-068E,2024-08-22T14:46:29.313984,15.40672724,.0001663,43.0033,0.1270,247.5303,112.5377,0,U,59459,999,2202,-.86375E-4,-.3907E-4,0
STARLINK-31620,2024-068F,2024-08-22T08:07:14.259072,15.40721574,.0001723,43.0061,1.4887,265.4362,94.6297,0,U,59460,999,2198,-.57035E-4,-.2687E-4,0
STARLINK-31511,2024-068H,2024-08-22T17:04:47.341920,15.40719707,.0002046,43.0017,359.1235,299.5961,60.4692,0,U,59462,999,2204,.15149E-3,.6033E-4,0
STARLINK-31364,2024-068J,2024-08-22T09:56:44.175552,15.40685170,.0003099,43.0055,1.1964,282.1558,77.8951,0,U,59463,999,2199,.19035E-4,.49E-5,0
STARLINK-31597,2024-068K,2024-08-22T18:09:04.072896,15.40762108,.0001642,43.0050,358.5954,259.3197,100.7475,0,U,59464,999,2199,-.31839E-3,-.13607E-3,0
STARLINK-31621,2024-068L,2024-08-22T16:45:26.741952,15.40695150,.000333,43.0071,359.0350,297.1931,62.8586,0,U,59465,999,2203,.30871E-4,.985E-5,0
STARLINK-31462,2024-068M,2024-08-22T16:29:18.582432,15.40686228,.0000982,43.0041,358.9180,268.8896,91.1848,0,U,59466,999,2204,-.5269E-4,-.2502E-4,0
STARLINK-31592,2024-068N,2024-08-22T17:01:34.325184,15.40695315,.0003095,43.0058,359.1083,297.3699,62.6842,0,U,59467,999,2204,.18662E-4,.475E-5,0
STARLINK-31267,2024-068P,2024-08-22T09:37:22.197504,15.40706872,.0002353,43.0087,1.0999,292.1146,67.9460,0,U,59468,999,2199,.78492E-4,.2977E-4,0
STARLINK-31381,2024-068Q,2024-08-22T15:47:36.572352,15.40663653,.0001716,43.0078,359.5856,291.1148,68.9525,0,U,59469,999,2203,-.3018E-4,-.1563E-4,0
STARLINK-31575,2024-068S,2024-08-22T09:43:50.271744,15.40692454,.0001577,42.9995,1.1269,152.3926,207.7015,0,U,59471,999,2199,.5377E-4,.1943E-4,0
STARLINK-31375,2024-068T,2024-08-22T16:24:06.799392,15.41613021,.0001144,43.0007,358.9040,343.0497,17.0322,0,U,59472,999,2204,.12931E-2,.55784E-3,0
STARLINK-31610,2024-068U,2024-08-22T18:12:20.613024,15.40702765,.0001332,43.0038,358.6123,245.0708,115.0010,0,U,59473,999,2205,.12982E-3,.5123E-4,0
STARLINK-31581,2024-068V,2024-08-22T17:17:43.594080,15.40676934,.0003773,43.0012,359.1936,315.9584,44.0971,0,U,59474,999,2204,-.34537E-4,-.1746E-4,0
STARLINK-31566,2024-068W,2024-08-22T16:22:51.481056,15.40691618,.0001969,43.0073,358.8955,259.2914,100.7721,0,U,59475,999,2204,-.26928E-4,-.1428E-4,0
STARLINK-31515,2024-068X,2024-08-22T18:05:53.522016,15.40705806,.0001682,43.0037,358.5757,256.4741,103.5928,0,U,59476,999,2204,.18372E-3,.738E-4,0
STARLINK-31531,2024-068Y,2024-08-22T09:59:45.092832,15.40708057,.0002216,43.0045,0.3357,268.2817,91.7786,0,U,59477,999,2200,.72816E-4,.274E-4,0
DUMMY SAT 3,2024-069A,2024-08-21T22:53:59.500032,0.98606104,.0049899,0.3730,87.2832,113.9168,158.5909,0,U,59479,999,126,0,.2E-7,0
WSF-M,2024-070A,2024-08-22T13:28:25.350528,14.20514028,.0005938,98.7202,241.5034,79.1011,281.0834,0,U,59481,999,1887,.14289E-3,.263E-5,0
STARLINK-31753,2024-071A,2024-08-22T13:03:20.205504,15.40686181,.0001952,43.0026,318.9121,135.1009,225.0005,0,U,59484,999,2150,-.12367E-4,-.82E-5,0
STARLINK-31653,2024-071B,2024-08-22T16:58:14.763648,15.40672134,.0000687,42.9998,317.5458,194.4124,165.6713,0,U,59485,999,2153,-.17129E-3,-.7444E-4,0
STARLINK-31733,2024-071C,2024-08-22T14:14:03.881472,15.40763806,.000139,43.0035,318.4157,263.8088,96.2610,0,U,59486,999,2151,.40304E-3,.16604E-3,0
STARLINK-31657,2024-071D,2024-08-22T12:53:38.982336,15.40677488,.0001026,42.9952,318.8482,240.5985,119.4769,0,U,59487,999,2155,-.10851E-3,-.4829E-4,0
STARLINK-31754,2024-071E,2024-08-22T07:12:16.426368,15.40709174,.0001741,43.0017,319.6445,234.7417,125.3277,0,U,59488,999,2152,.44587E-4,.156E-4,0
STARLINK-31638,2024-071F,2024-08-22T12:05:16.772640,15.40681221,.0000674,43.0082,318.6039,283.5677,76.5105,0,U,59489,999,2150,-.24142E-4,-.1311E-4,0
